{
  "alt_name_1": "Nom alternatif",
  "survey:date": "Date d'enquête",
  "roof:orientation:compass": "Orientation du toit",
  "takeaway:covid19": "A emporter (covid19)",
  "cuisine": "Cuisine",
  "payment:cash": "Paiement en espèces",
  "contact:twitter": "Contact Twitter",
  "architect": "Architecte",
  "addr:street": "Rue",
  "level": "Niveau",
  "material": "Matériau",
  "name:en": "Langue : Anglais",
  "wheelchair:step_height": "Hauteur de marche pour fauteuil roulant",
  "telephone": "Numéro de téléphone",
  "payment:visa_electron": "Paiement par carte (visa electron)",
  "facebook": "Facebook",
  "name:zh": "Langue : Chinois",
  "amenity": "Équipement",
  "charge": "Charge",
  "contact:phone": "Contact téléphone",
  "payment:cards": "Paiement par carte",
  "payment:contactless": "Paiement sans contact",
  "capacity": "Capacité",
  "mapillary": "Mapillary",
  "payment:visa": "Paiement par visa",
  "access": "Accès",
  "heritage": "Patrimoine historique",
  "building": "Bâtiment",
  "name:es": "Langue : Espagnol",
  "payment:notes": "Paiement par billets",
  "roof:shape": "Forme de toit",
  "toilets": "Toilettes",
  "osm_user": "Utilisateur OpenStreetMap",
  "information": "Information",
  "addr:suburb": "Zone urbaine",
  "name:fr": "Langue : Français",
  "leisure": "Loisirs",
  "building:levels": "Nombre de niveaux de bâtiment",
  "ref": "Référence",
  "place": "Lieu",
  "building:use": "Fonction de bâtiment",
  "start_date": "Date de départ",
  "website": "Site internet",
  "contact:instagram": "Contact Instagram",
  "currency:XLT": "Devise monétaire : XLT (Litecoin)",
  "official_name": "Nom officiel",
  "outdoor_seating": "Station assise en extérieur",
  "contact:facebook": "Contact Facebook",
  "wheelchair": "Fauteuil roulant",
  "layer": "Couche",
  "wheelchair:entrance_width": "Largeur d'entrée pour fauteuil roulant",
  "smoking": "Fumeur",
  "disused": "Désaffecté",
  "denomination": "Dénomination",
  "old_name": "Ancienne dénomination",
  "addr:housename": "Nom de maison",
  "name:ja": "Langue : Japonais",
  "osm_timestamp": "Horodatage",
  "noname": "Sans nom",
  "heritage:operator": "Type de patrimoine historique",
  "payment:coins": "Paiment par pièces",
  "amenity_1": "Équipement ",
  "height": "Hauteur",
  "roof:height": "Hauteur de toit",
  "opening_hours:signed": "Panneau d'horaire d'ouverture",
  "access:covid19": "Accès (covid19)",
  "payment:credit_cards": "Paiement par carte de crédit",
  "operator:wikidata": "Opérateur Wikidata",
  "roof:colour": "Couleur de toit",
  "name:it": "Langue : Italien",
  "ref:FR:FANTOIR": "Référence FANTOIR",
  "int_name": "Nom international",
  "contact:website": "Contact Site Internet",
  "name:br": "Langue : Breton",
  "roof:levels": "Nombre d'étages du toit",
  "disused:amenity": "Équipement désaffecté",
  "office": "Bureau",
  "delivery:covid19": "Livraison (covid19)",
  "man_made": "Artificiel",
  "wikidata": "Wikidata",
  "entrance:width": "Largeur d'entrée",
  "internet_access": "Accès internet",
  "building:roof:shape": "Forme de toit de bâtiment",
  "addr:hamlet": "Hameau",
  "organic": "Production biologique",
  "alt_name": "Nom alternatif",
  "ref:FR:NAF": "Référence NAF",
  "name:nl": "Langue : Néerlandais",
  "url": "URL",
  "ref:FR:SIREN": "Référence SIREN",
  "phone_1": "Téléphone",
  "is_in": "Localisation",
  "delivery": "Livraison",
  "description:en": "Information supplémentaire : Anglais",
  "loc_name": "Nom de local",
  "owner": "Propriétaire",
  "brand": "Marque",
  "contact:city": "Contact Ville",
  "ref:FR:CRTA": "Référence CRTA",
  "name:de": "Langue : Allemand",
  "name:oc": "Langue : Occitan",
  "wheelchair:description": "Information supplémentaire relative aux fauteuils roulants",
  "payment:american_express": "Paiement par American Express",
  "name:eu": "Langue : Basque",
  "entrance:step:height": "Hauteur de marche de l'entrée",
  "landuse": "Occupation du sol",
  "name_1": "Langue",
  "artist_name": "Nom d'artiste",
  "addr:unit": "Voie intérieure",
  "way_area": "Surface",
  "opening_hours": "Horaires d'ouverture",
  "addr:city": "Ville",
  "network": "Réseau",
  "construction": "Construction",
  "entrance:step_count": "Nombre de marches de l'entrée",
  "description": "Information supplémentaire",
  "toilets:access": "Accès aux toilettes",
  "description:covid19": "Information supplémentaire (covid19)",
  "roof:material": "Matériau de construction du toit",
  "religion": "Religion",
  "internet_access:fee": "Frais d'accès internet",
  "tourism": "Tourisme",
  "contact:mobile": "Contact portable",
  "FID": "Référence FID",
  "opening_hours:covid19": "Horaires d'ouverture (covid19)",
  "room": "Pièce",
  "addr:state": "État ",
  "postal_code": "Code postal",
  "wikipedia": "Wikipédia",
  "contact:street": "Contact rue",
  "colour": "Couleur",
  "dog": "Chien",
  "image": "Image",
  "social_facility:for": "Public prioritaire de l'établissement social",
  "atm": "Distributeur automatique de billets",
  "osm_version": "Version d'OpenStreetMap",
  "name:etymology:wikidata": "Source : Wikidata",
  "osm_uid": "Identifiant de l'utilisateur OSM ayant contribué le plus récemment",
  "fax": "Fax",
  "contact:postcode": "Contact Code postal",
  "addr:housenumber": "Numéro de maison",
  "osm_changeset": "Groupe de modification OSM",
  "sport": "Sport",
  "payment:mastercard": "Paiement par mastercard",
  "wifi": "Wi-Fi",
  "indoor": "Intérieur",
  "wall": "Mur",
  "description:fr": "Information supplémentaire : Français",
  "contact:fax": "Contact Fax",
  "phone": "Téléphone",
  "mhs:inscription_date": "Date de classement en monument historique",
  "wikimedia_commons": "Licence Wikimédia",
  "roof:orientation": "Orientation du toit",
  "name:ko": "Langue : Coréen",
  "brand:wikidata": "Marque Wikidata",
  "payment:maestro": "Paiement par Maestro",
  "historic": "Historique",
  "email": "Adresse e-mail",
  "ref:FR:FINESS": "Référence FINESS",
  "brand:wikipedia": "Marque Wikipédia",
  "hide": "Masquer",
  "payment:visa_debit": "Paiement par carte de débit Visa",
  "addr:place": "Lieu",
  "name:ru": "Langue : Russe",
  "building:colour": "Couleur de bâtiment",
  "addr:postcode": "Code postal",
  "operator:type": "Type d'opérateur",
  "payment:cheque": "Paiement par chèque",
  "takeaway": "A emporter",
  "short_name": "Nom raccourci",
  "addr:country": "Pays",
  "operator": "Opérateur",
  "entrance": "Entrée",
  "comment:fr": "Langue du commentaire : Français",
  "parking": "Parking",
  "building:part": "Partie de bâtiment",
  "type": "Type",
  "area": "Surface",
  "contact:email": "Contact e-mail",
  "was:name": "was:name",
  "check_date": "Dernière date de vérification",
  "name": "Nom",
  "building:material": "Matériau de construction",
  "air_conditioning": "Air conditionné",
  "shop": "Magasin",
  "ref:FR:SIRET": "Numéro SIRET",
  "contact:addr": "Contact Adresse",
  "social_facility": "Etablissement social",
  "toilets:wheelchair": "Toilettes accessibles en fauteuil roulant",
  "contact:country": "Contact Pays",
  "barrier": "Barrière",
  "ele": "Altitude",
  "bmo:type": "Type de bâtiment (Cadastre partagé par Brest Métropole Océane)",
  "surveillance": "Type de surveillance",
  "contact:housenumber": "Contact numéro de maison",
  "name:ar": "Langue : Arabe",
  "payment:debit_cards": "Paiement par carte de débit",
  "ref:mhs": "Monument Historique et Site",
  "brand:website": "Marque Site internet",
  "craft": "Artisanat",
  "addr:full": "Adresse particulière",
  "vending": "Distributeur automatique",
  "bus": "Transport public routier",
  "name:pt": "Langue : Portugais",
  "currency:EUR": "Devise monétaire : EUR (Euros)",
  "check_date:opening_hours": "Dernière date de vérification des horaires d'ouverture",
  "public_transport": "Transport public",
  "operator:wikipedia": "Opérateur Wikipédia",
  "was:shop": "was:shop",
  "old_shop": "Ancien magasin",
  "power": "Énergie ",
  "source_1": "Source",
  "covered": "Élément couvert",
  "motor_vehicle": "Véhicule motorisé",
  "highway": "Autoroute",
  "FIXME": "Erreur (possible) dans la donnée",
  "service": "Service",
  "shelter": "Abri",
  "lit": "Présence d'éclairage",
  "opening_hours:url": "URL des horaires d'ouverture",
  "fee": "Frais",
  "disused:shop": "Magasin désaffecté",
  "surface": "Revêtement",
  "abandoned": "Abandonné",
  "foot": "Piéton",
  "bicycle": "Vélo",
  "end_date": "Date de fin",
  "location": "Emplacement",
  "width": "Largeur",
  "drive_through": "Service au volant",
  "shop_1": "Magasin",
  "name:ca": "Langue : Catalan",
  "opening_date": "Date d'ouverture",
  "supervised": "Emplacement surveillé",
  "drinking_water": "Eau potable",
  "emergency": "Équipement et service d'urgence",
  "name:pl": "Langue : Polonais",
  "ref:UAI": "Référence UAI",
  "date": "Date",
  "direction": "Direction",
  "support": "Support",
  "natural": "Nature du terrain naturel",
  "second_hand": "Magasin vendant des produits d'occasion",
  "fence_type": "Type de barrière",
  "inscription": "Inscription",
  "FR:ERP": "Référence ERP",
  "name:uk": "Langue : Ukrainien",
  "indoor:level": "Niveau de bâtiment",
  "ruins": "Ruines"
}
